NORAD_CAT_ID,OBJECT_NAME,OBJECT_TYPE,EPOCH,MEAN_MOTION,ECCENTRICITY,INCLINATION,RA_OF_ASC_NODE,ARG_OF_PERICENTER,MEAN_ANOMALY,BSTAR,MEAN_MOTION_DOT,MEAN_MOTION_DDOT,TLE_LINE0,TLE_LINE1,TLE_LINE2,SEMIMAJOR_AXIS,PERIOD,APOGEE,PERIGEE,DECAYED
52702.0,STARLINK-4033,PAYLOAD,2024-01-17 08:29:56,15.08834215,0.0001357,53.2171,61.1896,90.0808,270.034,8.8614e-05,1.122e-05,0.0,0 STARLINK-4033,1 52702U 22053AY  24017.35412854  .00001122  00000-0  88614-4 0  9991,2 52702  53.2171  61.1896 0001357  90.0808 270.0340 15.08834215 92575,6917.898,95.438,540.702,538.824,0.0
52702.0,STARLINK-4033,PAYLOAD,2024-01-18 11:31:29,15.08841911,0.0001673,53.2178,56.1344,94.5306,265.5877,0.00023369,3.433e-05,0.0,0 STARLINK-4033,1 52702U 22053AY  24018.48020485  .00003433  00000-0  23369-3 0  9993,2 52702  53.2178  56.1344 0001673  94.5306 265.5877 15.08841911 92741,6917.875,95.437,540.897,538.582,0.0
52702.0,STARLINK-4033,PAYLOAD,2024-01-19 09:46:53,15.08843696,0.0001838,53.2181,51.9727,79.021,281.0989,0.00010434,1.373e-05,0.0,0 STARLINK-4033,1 52702U 22053AY  24019.40756884  .00001373  00000-0  10434-3 0  9995,2 52702  53.2181  51.9727 0001838  79.0210 281.0989 15.08843696 92882,6917.869,95.437,541.006,538.463,0.0
52702.0,STARLINK-4033,PAYLOAD,2024-01-20 08:02:18,15.08838108,0.000148,53.2176,47.8113,64.0079,296.1065,-1.7356e-06,-3.16e-06,0.0,0 STARLINK-4033,1 52702U 22053AY  24020.33493499 -.00000316  00000-0 -17356-5 0  9999,2 52702  53.2176  47.8113 0001480  64.0079 296.1065 15.08838108 93020,6917.886,95.438,540.775,538.727,0.0
52702.0,STARLINK-4033,PAYLOAD,2024-01-21 01:31:32,15.08844525,0.0001464,53.2182,44.5379,111.5478,248.5671,1.2971e-05,-8.2e-07,0.0,0 STARLINK-4033,1 52702U 22053AY  24021.06357034 -.00000082  00000-0  12971-4 0  9990,2 52702  53.2182  44.5379 0001464 111.5478 248.5671 15.08844525 93134,6917.867,95.437,540.744,538.719,0.0
52702.0,STARLINK-4033,PAYLOAD,2024-01-21 06:17:41,15.08847488,0.0001527,53.2177,43.6479,64.6123,295.5027,7.1481e-05,8.5e-06,0.0,0 STARLINK-4033,1 52702U 22053AY  24021.26228972  .00000850  00000-0  71481-4 0  9993,2 52702  53.2177  43.6479 0001527  64.6123 295.5027 15.08847488 93570,6917.858,95.437,540.779,538.666,0.0
52702.0,STARLINK-4033,PAYLOAD,2024-01-21 07:53:04,15.08849583,0.000153,53.2174,43.3505,63.9021,296.2129,9.2203e-05,1.18e-05,0.0,0 STARLINK-4033,1 52702U 22053AY  24021.32852803  .00001180  00000-0  92203-4 0  9998,2 52702  53.2174  43.3505 0001530  63.9021 296.2129 15.08849583 93587,6917.851,95.437,540.775,538.658,0.0
52702.0,STARLINK-4033,PAYLOAD,2024-01-22 01:22:18,15.08874745,0.0001248,53.2171,40.0778,64.9527,295.1595,-0.00043836,-7.264e-05,0.0,0 STARLINK-4033,1 52702U 22053AY  24022.05716358 -.00007264  00000-0 -43836-3 0  9991,2 52702  53.2171  40.0778 0001248  64.9527 295.1595 15.08874745 93288,6917.774,95.435,540.503,538.776,0.0
52702.0,STARLINK-4033,PAYLOAD,2024-01-22 06:08:29,15.08833636,0.0001539,53.217,39.1857,75.0618,285.0544,0.00020514,2.978e-05,0.0,0 STARLINK-4033,1 52702U 22053AY  24022.25589588  .00002978  00000-0  20514-3 0  9999,2 52702  53.2170  39.1857 0001539  75.0618 285.0544 15.08833636 93726,6917.9,95.438,540.83,538.7,0.0
52702.0,STARLINK-4033,PAYLOAD,2024-01-22 10:54:38,15.08843673,0.0001591,53.2164,38.2918,75.4331,284.6838,0.00012919,1.769e-05,0.0,0 STARLINK-4033,1 52702U 22053AY  24022.45461031  .00001769  00000-0  12919-3 0  9990,2 52702  53.2164  38.2918 0001591  75.4331 284.6838 15.08843673 93342,6917.869,95.437,540.835,538.634,0.0
52702.0,STARLINK-4033,PAYLOAD,2024-01-23 05:59:16,15.088404,0.0001557,53.2164,34.7218,90.683,269.434,7.0346e-05,8.32e-06,0.0,0 STARLINK-4033,1 52702U 22053AY  24023.24949305  .00000832  00000-0  70346-4 0  9992,2 52702  53.2164  34.7218 0001557  90.6830 269.4340 15.08840400 93873,6917.879,95.438,540.821,538.667,0.0
52702.0,STARLINK-4033,PAYLOAD,2024-01-23 07:34:39,15.08841056,0.0001558,53.2184,34.422,106.7911,253.3252,0.00014707,2.053e-05,0.0,0 STARLINK-4033,1 52702U 22053AY  24023.31572954  .00002053  00000-0  14707-3 0  9997,2 52702  53.2184  34.4220 0001558 106.7911 253.3252 15.08841056 93473,6917.877,95.437,540.82,538.664,0.0
52702.0,STARLINK-4033,PAYLOAD,2024-01-24 04:14:40,15.0883717,0.0001744,53.2193,30.5632,107.481,252.6373,5.4839e-05,5.85e-06,0.0,0 STARLINK-4033,1 52702U 22053AY  24024.17685392  .00000585  00000-0  54839-4 0  9992,2 52702  53.2193  30.5632 0001744 107.4810 252.6373 15.08837170 93603,6917.889,95.438,540.961,538.548,0.0
52702.0,STARLINK-4033,PAYLOAD,2024-01-24 07:25:26,15.08841285,0.0001653,53.2191,29.9685,103.5463,256.5714,8.5003e-05,1.065e-05,0.0,0 STARLINK-4033,1 52702U 22053AY  24024.30933134  .00001065  00000-0  85003-4 0  9998,2 52702  53.2191  29.9685 0001653 103.5463 256.5714 15.08841285 94033,6917.876,95.437,540.885,538.598,0.0
52702.0,STARLINK-4033,PAYLOAD,2024-01-25 07:16:14,15.08790254,0.0002196,53.2192,25.5051,113.8871,246.2352,0.00073831,0.00011466,0.0,0 STARLINK-4033,1 52702U 22053AY  24025.30294793  .00011466  00000-0  73831-3 0  9991,2 52702  53.2192  25.5051 0002196 113.8871 246.2352 15.08790254 93776,6918.032,95.441,541.417,538.378,0.0
52702.0,STARLINK-4033,PAYLOAD,2024-01-26 03:56:12,15.08856329,0.0001623,53.219,21.642,124.604,235.5106,0.00019951,2.89e-05,0.0,0 STARLINK-4033,1 52702U 22053AY  24026.16403319  .00002890  00000-0  19951-3 0  9996,2 52702  53.2190  21.6420 0001623 124.6040 235.5106 15.08856329 93902,6917.83,95.437,540.818,538.573,0.0
52702.0,STARLINK-4033,PAYLOAD,2024-01-26 07:06:58,15.08868337,0.0001394,53.2183,21.0459,93.8437,266.2714,0.00021151,3.082e-05,0.0,0 STARLINK-4033,1 52702U 22053AY  24026.29650780  .00003082  00000-0  21151-3 0  9995,2 52702  53.2183  21.0459 0001394  93.8437 266.2714 15.08868337 93922,6917.794,95.436,540.623,538.694,0.0
52702.0,STARLINK-4033,PAYLOAD,2024-01-26 13:28:34,15.08813125,0.0001418,53.2183,19.8608,72.4294,287.6853,-0.00015414,-2.738e-05,0.0,0 STARLINK-4033,1 52702U 22053AY  24026.56150907 -.00002738  00000-0 -15414-3 0  9995,2 52702  53.2183  19.8608 0001418  72.4294 287.6853 15.08813125 93964,6917.963,95.439,540.809,538.847,0.0
52702.0,STARLINK-4033,PAYLOAD,2024-01-27 03:47:02,15.08824422,0.0001105,53.2168,17.1865,104.2914,255.8201,-0.00014885,-2.655e-05,0.0,0 STARLINK-4033,1 52702U 22053AY  24027.15766604 -.00002655  00000-0 -14885-3 0  9997,2 52702  53.2168  17.1865 0001105 104.2914 255.8201 15.08824422 94056,6917.928,95.439,540.557,539.029,0.0
52702.0,STARLINK-4033,PAYLOAD,2024-01-27 08:33:10,15.08833683,0.0001282,53.2167,16.2837,90.4964,269.6175,-0.00010511,-1.96e-05,0.0,0 STARLINK-4033,1 52702U 22053AY  24027.35637203 -.00001960  00000-0 -10511-3 0  9991,2 52702  53.2167  16.2837 0001282  90.4964 269.6175 15.08833683 94086,6917.9,95.438,540.652,538.878,0.0
52702.0,STARLINK-4033,PAYLOAD,2024-01-28 08:23:58,15.08847036,0.0001502,53.2166,11.8254,76.2031,283.9129,0.0010728,0.0001683,0.0,0 STARLINK-4033,1 52702U 22053AY  24028.34997743  .00016830  00000-0  10728-2 0  9998,2 52702  53.2166  11.8254 0001502  76.2031 283.9129 15.08847036 94233,6917.859,95.437,540.763,538.685,0.0
52702.0,STARLINK-4033,PAYLOAD,2024-01-29 03:28:35,15.08842565,0.0001786,53.2189,8.2593,103.0009,257.1182,0.00043573,6.654e-05,0.0,0 STARLINK-4033,1 52702U 22053AY  24029.14485790  .00006654  00000-0  43573-3 0  9999,2 52702  53.2189   8.2593 0001786 103.0009 257.1182 15.08842565 94359,6917.873,95.437,540.973,538.502,0.0
52702.0,STARLINK-4033,PAYLOAD,2024-01-29 08:14:44,15.08856537,0.0001513,53.2182,7.3653,87.0362,273.0803,0.00070579,0.00010968,0.0,0 STARLINK-4033,1 52702U 22053AY  24029.34357534  .00010968  00000-0  70579-3 0  9994,2 52702  53.2182   7.3653 0001513  87.0362 273.0803 15.08856537 94384,6917.83,95.437,540.742,538.648,0.0
52702.0,STARLINK-4033,PAYLOAD,2024-01-29 22:33:13,15.08829662,0.0001387,53.219,4.6822,91.5946,268.5205,0.0012787,0.00020115,0.0,0 STARLINK-4033,1 52702U 22053AY  24029.93974017  .00020115  00000-0  12787-2 0  9991,2 52702  53.2190   4.6822 0001387  91.5946 268.5205 15.08829662 94887,6917.912,95.438,540.737,538.817,0.0
52702.0,STARLINK-4033,PAYLOAD,2024-01-30 03:19:22,15.0884158,0.0001478,53.2186,3.7907,100.4571,259.6588,0.00056966,8.79e-05,0.0,0 STARLINK-4033,1 52702U 22053AY  24030.13845594  .00008790  00000-0  56966-3 0  9995,2 52702  53.2186   3.7907 0001478 100.4571 259.6588 15.08841580 94508,6917.876,95.437,540.763,538.718,0.0
52702.0,STARLINK-4033,PAYLOAD,2024-01-30 08:05:32,15.08846234,0.0001734,53.2191,2.9039,92.5582,267.5609,0.00024445,3.605e-05,0.0,0 STARLINK-4033,1 52702U 22053AY  24030.33717772  .00003605  00000-0  24445-3 0  9990,2 52702  53.2191   2.9039 0001734  92.5582 267.5609 15.08846234 94940,6917.861,95.437,540.926,538.527,0.0
52702.0,STARLINK-4033,PAYLOAD,2024-01-31 03:10:09,15.08841365,0.0001732,53.2186,359.3337,101.485,258.6336,9.8524e-05,1.28e-05,0.0,0 STARLINK-4033,1 52702U 22053AY  24031.13205932  .00001280  00000-0  98524-4 0  9996,2 52702  53.2186 359.3337 0001732 101.4850 258.6336 15.08841365 94656,6917.876,95.437,540.939,538.543,0.0
52702.0,STARLINK-4033,PAYLOAD,2024-01-31 04:45:32,15.08843707,0.0001662,53.2189,359.0359,89.0672,271.051,0.00012671,1.729e-05,0.0,0 STARLINK-4033,1 52702U 22053AY  24031.19829856  .00001729  00000-0  12671-3 0  9995,2 52702  53.2189 359.0359 0001662  89.0672 271.0510 15.08843707 95077,6917.869,95.437,540.884,538.584,0.0
52702.0,STARLINK-4033,PAYLOAD,2024-01-31 22:14:47,15.08836654,0.000179,53.2189,355.7666,91.2048,268.9149,2.1861e-05,6e-07,0.0,0 STARLINK-4033,1 52702U 22053AY  24031.92694255  .00000060  00000-0  21861-4 0  9998,2 52702  53.2189 355.7666 0001790  91.2048 268.9149 15.08836654 95183,6917.891,95.438,540.994,538.517,0.0
52702.0,STARLINK-4033,PAYLOAD,2024-02-01 03:00:57,15.0883598,0.0001634,53.2191,354.8731,100.2095,259.9081,-1.9549e-05,-5.99e-06,0.0,0 STARLINK-4033,1 52702U 22053AY  24032.12566303 -.00000599  00000-0 -19549-4 0  9992,2 52702  53.2191 354.8731 0001634 100.2095 259.9081 15.08835980 94803,6917.893,95.438,540.888,538.627,0.0
